EVENT_NAME: None
EVENT_ID: INT-20250227_0000079
EVENT_DATE_YYYYMMDD: 20250227
EVENT_TIME_HHMMSS: 081957
EVENT_LATITUDE_DEGREE: 51.4991
EVENT_LONGITUDE_DEGREE: 16.0826
EVENT_DEPTH_KM: 1.0
HYPOCENTER_REFERENCE: EMSC-CSEM
MAGNITUDE_W: 
MAGNITUDE_W_REFERENCE: 
MAGNITUDE_L: 4.0
MAGNITUDE_L_REFERENCE: EMSC-CSEM
FOCAL_MECHANISM: 
NETWORK: CZ
STATION_CODE: DPC
STATION_NAME: Dobruska Polom
STATION_LATITUDE_DEGREE: 50.350200
STATION_LONGITUDE_DEGREE: 16.322200
STATION_ELEVATION_M: 748
LOCATION: 
SENSOR_DEPTH_M: 0.0
VS30_M/S: 
SITE_CLASSIFICATION_EC8: B (inferred from topography)
MORPHOLOGIC_CLASSIFICATION: 
EPICENTRAL_DISTANCE_KM: 128.9
EARTHQUAKE_BACKAZIMUTH_DEGREE: 172.4
DATE_TIME_FIRST_SAMPLE_YYYYMMDD_HHMMSS: 
DATE_TIME_FIRST_SAMPLE_PRECISION: 
SAMPLING_INTERVAL_S: 
NDATA: 105
DURATION_S: 
STREAM: HNN
UNITS: cm/s^2
INSTRUMENT: HN
INSTRUMENT_ANALOG/DIGITAL: D
INSTRUMENTAL_FREQUENCY_HZ: 
INSTRUMENTAL_DAMPING: 
FULL_SCALE_G: 
N_BIT_DIGITAL_CONVERTER: 
PGA_CM/S^2: -0.014805
TIME_PGA_S: 
BASELINE_CORRECTION: BASELINE REMOVED
FILTER_TYPE: BUTTERWORTH
FILTER_ORDER: 2
LOW_CUT_FREQUENCY_HZ: 0.150
HIGH_CUT_FREQUENCY_HZ: 40.000
LATE/NORMAL_TRIGGERED: NT
DATABASE_VERSION: 0.5
HEADER_FORMAT: DYNA 1.2
DATA_TYPE: ACCELERATION RESPONSE SPECTRUM
PROCESSING: manual (Paolucci et al., 2011)
DATA_TIMESTAMP_YYYYMMDD_HHMMSS: 20250612_205014.725
DATA_LICENSE: D (network default license)
DATA_CITATION: Luzi L., Lanzano G., Felicetta C., D Amico M. C., Russo E., Sgobba S., Pacor, F., & ORFEUS Working Group 5 (2020). Engineering Strong Motion Database (ESM) (Version 2.0). Istituto Nazionale di Geofisica e Vulcanologia (INGV). https://doi.org/10.13127/ESM.2
DATA_CREATOR: ESM working group
ORIGINAL_DATA_MEDIATOR_CITATION: IRIS Data Services https://www.iris.edu/hq/iris_citations
ORIGINAL_DATA_MEDIATOR: IRIS DMC Web Services (http://service.iris.edu/fdsnws/dataselect/1)
ORIGINAL_DATA_CREATOR_CITATION: Institute Of Geophysics, Academy Of Sciences Of The Czech Republic. (1973). Czech Regional Seismic Network. International Federation of Digital Seismograph Networks. https://doi.org/10.7914/SN/CZ http://www.fdsn.org/networks/detail/CZ/
ORIGINAL_DATA_CREATOR: network: CZ (Czech Regional Seismic Network (CZ)); owner: Institute of Geophysics, Academy of Sciences of the Czech Republic
USER1: 
USER2: 
USER3: 
USER4: 
USER5: 
    0.010000     0.014857
    0.020000     0.015284
    0.022000     0.015619
    0.025000     0.015742
    0.029000     0.014912
    0.030000     0.015111
    0.032000     0.015432
    0.035000     0.015456
    0.036000     0.015456
    0.040000     0.015552
    0.042000     0.016611
    0.044000     0.016702
    0.045000     0.016486
    0.046000     0.016486
    0.048000     0.016726
    0.050000     0.018111
    0.055000     0.019048
    0.060000     0.017829
    0.065000     0.017475
    0.067000     0.018072
    0.070000     0.020140
    0.075000     0.021682
    0.080000     0.020218
    0.085000     0.021297
    0.090000     0.025201
    0.095000     0.031170
    0.100000     0.030497
    0.110000     0.040403
    0.120000     0.049090
    0.130000     0.053100
    0.133000     0.055072
    0.140000     0.048881
    0.150000     0.042393
    0.160000     0.035042
    0.170000     0.029860
    0.180000     0.036978
    0.190000     0.038963
    0.200000     0.039720
    0.220000     0.024783
    0.240000     0.025751
    0.250000     0.027596
    0.260000     0.023882
    0.280000     0.019743
    0.290000     0.019697
    0.300000     0.023036
    0.320000     0.025944
    0.340000     0.025610
    0.350000     0.025713
    0.360000     0.025950
    0.380000     0.026532
    0.400000     0.023802
    0.420000     0.019681
    0.440000     0.017447
    0.450000     0.016781
    0.460000     0.015724
    0.480000     0.012789
    0.500000     0.011492
    0.550000     0.009330
    0.600000     0.009600
    0.650000     0.009674
    0.667000     0.010043
    0.700000     0.008079
    0.750000     0.006257
    0.800000     0.005761
    0.850000     0.005242
    0.900000     0.004764
    0.950000     0.005161
    1.000000     0.005809
    1.100000     0.003688
    1.200000     0.004706
    1.300000     0.004670
    1.400000     0.004406
    1.500000     0.005410
    1.600000     0.005489
    1.700000     0.005962
    1.800000     0.006790
    1.900000     0.005490
    2.000000     0.003678
    2.200000     0.003639
    2.400000     0.003640
    2.500000     0.003462
    2.600000     0.003253
    2.800000     0.002604
    3.000000     0.001788
    3.200000     0.001377
    3.400000     0.000991
    3.500000     0.000871
    3.600000     0.000790
    3.800000     0.000765
    4.000000     0.000784
    4.200000     0.000754
    4.400000     0.000704
    4.600000     0.000660
    4.800000     0.000617
    5.000000     0.000551
    5.500000     0.000380
    6.000000     0.000308
    6.500000     0.000246
    7.000000     0.000182
    7.500000     0.000137
    8.000000     0.000109
    8.500000     0.000095
    9.000000     0.000089
    9.500000     0.000082
   10.000000     0.000072
